[{"OBJECT_NAME":"AL-FARABI 2","OBJECT_ID":"2018-099AZ","EPOCH":"2026-03-09T22:26:01.961088","MEAN_MOTION":15.6820138,"ECCENTRICITY":0.00045442,"INCLINATION":97.4095,"RA_OF_ASC_NODE":144.7856,"ARG_OF_PERICENTER":216.2732,"MEAN_ANOMALY":143.8222,"EPHEMERIS_TYPE":0,"CLASSIFICATION_TYPE":"U","NORAD_CAT_ID":43805,"ELEMENT_SET_NO":999,"REV_AT_EPOCH":39939,"BSTAR":0.0015578554,"MEAN_MOTION_DOT":0.00177018,"MEAN_MOTION_DDOT":0},{"OBJECT_NAME":"STARLINK-11123 [DTC]","OBJECT_ID":"2024-107D","EPOCH":"2026-03-09T18:08:21.721344","MEAN_MOTION":15.69658416,"ECCENTRICITY":7.079e-5,"INCLINATION":53.1596,"RA_OF_ASC_NODE":251.1333,"ARG_OF_PERICENTER":92.7857,"MEAN_ANOMALY":267.3242,"EPHEMERIS_TYPE":0,"CLASSIFICATION_TYPE":"U","NORAD_CAT_ID":59948,"ELEMENT_SET_NO":999,"REV_AT_EPOCH":10221,"BSTAR":-2.2797912e-5,"MEAN_MOTION_DOT":-3.342e-5,"MEAN_MOTION_DDOT":0}]
